301P/LINEAR-NEAT,e,10.3287,351.0620,193.4256,5.752496,0.0714364,0.58628068,287.1345,08/01.0/2025,2000,g 13.0,4.0
# From MPEC 2025-OF9
302P/Lemmon-PANSTARRS,e,6.0357,121.7161,208.6231,4.266948,0.1118222,0.22927759,16.1711,08/01.0/2025,2000,g 12.5,4.0
# From MPEC 2025-OF9
303P/NEAT,e,7.0162,347.9091,357.0559,5.039562,0.0871194,0.51022267,342.3214,08/01.0/2025,2000,g 13.5,4.0
# From MPEC 2022-K19
304P/Ory,e,2.6056,58.9369,335.2826,3.149524,0.1763343,0.60083063,319.5835,08/01.0/2025,2000,g 16.5,4.0
# From MPC182890
305P/Skiff,e,11.6702,240.0939,147.3953,4.635218,0.0987641,0.69407457,25.3696,08/01.0/2025,2000,g 18.0,4.0
# From MPEC 2025-OF9
306P/LINEAR,e,8.3018,341.3404,0.9103,3.124224,0.1784805,0.59255042,359.8844,08/01.0/2025,2000,g 19.0,4.0
# From MPC 92278
307P/LINEAR,e,4.4344,158.1081,222.2578,5.788076,0.0707787,0.67495358,273.6956,08/01.0/2025,2000,g 15.0,4.0
# From MPEC 2022-C56
308P/Lagerkvist-Carsenty,e,4.8519,63.0998,333.7611,6.601543,0.0581080,0.36407899,216.7710,08/01.0/2025,2000,g 13.0,2.0
# From MPC184419
309P/LINEAR,e,17.0193,10.1389,49.9214,4.374740,0.1077149,0.61819640,52.7866,08/01.0/2025,2000,g 15.0,4.0
# From MPC182891
310P/Hill,e,13.1202,8.8834,31.5160,4.180840,0.1152945,0.42203843,74.6990,08/01.0/2025,2000,g 13.5,4.0
# From MPC184419
311P/PANSTARRS,e,4.9713,279.1683,144.3001,2.188738,0.3043781,0.11547192,175.6548,08/01.0/2025,2000,g 17.0,4.0
# From MPEC 2024-NE4
312P/NEAT,e,19.7458,144.6334,207.6960,3.472563,0.1523102,0.42663501,269.9076,08/01.0/2025,2000,g 16.0,4.0
# From MPEC 2025-OF9
313P/Gibbs,e,10.9811,105.9255,254.9905,3.163126,0.1751981,0.23442904,338.3184,08/01.0/2025,2000,g 15.0,4.0
# From MPC105243
314P/Montani,e,3.9921,267.6236,213.8695,7.248827,0.0505013,0.41864102,162.2568,08/01.0/2025,2000,g  9.5,4.0
# From MPEC 2023-J29
315P/LONEOS,e,17.7355,68.6340,65.9276,4.935865,0.0898792,0.52213175,284.7268,08/01.0/2025,2000,g 11.0,4.0
# From MPC182891
316P/LONEOS-Christensen,e,9.8707,245.8667,186.8350,4.404510,0.1066247,0.15615218,32.1872,08/01.0/2025,2000,g 13.5,4.0
# From MPEC 2020-C98
317P/WISE,e,11.9747,275.4724,334.8895,2.959531,0.1935841,0.57202319,342.4100,08/01.0/2025,2000,g 17.5,4.0
# From MPC102103
318P/McNaught-Hartley,e,17.8630,35.6114,313.2966,7.515253,0.0478397,0.67316438,170.8298,08/01.0/2025,2000,g  8.5,6.0
# From MPC184420
319P/Catalina-McNaught,e,15.0974,111.3661,203.5877,3.562356,0.1465879,0.66649862,178.7612,08/01.0/2025,2000,g 15.0,4.0
# From MPC 96281
320P/McNaught,e,4.9028,295.9404,0.7580,3.095984,0.1809281,0.68493032,300.1408,08/01.0/2025,2000,g 20.5,4.0
# From MPC105243
321P/SOHO,e,20.0554,165.0262,172.7400,2.422036,0.2614768,0.98100491,0.0000,10/26.4761/2023,2000,g 20.0,4.0
# From MPC102103
322P/SOHO,e,11.4457,351.3254,57.0962,2.508675,0.2480490,0.97992149,0.0000,08/21.1764/2023,2000,g 19.0,4.0
# From MPC182891
323P/SOHO,e,5.2137,323.9389,353.3310,2.440312,0.2585449,0.98346024,0.0000,03/14.2349/2025,2000,g 20.0,4.0
# From MPEC 2024-F21
323P-B/SOHO,e,5.4618,323.4640,353.9679,2.890134,0.2005982,0.98613299,0.0000,12/16.2364/2025,2000,g 26.0,4.0
# From MPEC 2024-F21
323P-C/SOHO,e,5.3395,324.1814,353.2163,2.612301,0.2334367,0.98477506,0.0000,04/07.1032/2025,2000,g 27.0,4.0
# From MPEC 2021-W31
324P/LaSagra,e,21.3993,270.5688,57.4056,3.097370,0.1808067,0.15278114,280.4948,08/01.0/2025,2000,g 13.0,4.0
# From MPEC 2024-LE0
325P/Yang-Gao,e,16.8445,256.8599,344.9033,3.549930,0.1473582,0.58697261,180.7138,08/01.0/2025,2000,g 14.0,4.0
# From MPEC 2024-LE0
326P/Hill,e,2.4738,99.7614,277.9885,4.061920,0.1203946,0.32055431,70.0557,08/01.0/2025,2000,g 13.5,4.0
# From MPEC 2024-M41
327P/VanNess,e,36.2293,173.9988,185.0387,3.563095,0.1465423,0.56248001,155.9506,08/01.0/2025,2000,g 16.0,4.0
# From MPEC 2024-YC7
328P/LONEOS-Tucker,e,17.6842,341.5321,30.6661,4.189470,0.1149385,0.55319330,42.4215,08/01.0/2025,2000,g 14.5,4.0
# From MPC101101
329P/LINEAR-Catalina,e,21.7189,87.6875,343.6066,5.181691,0.0835597,0.67887985,294.3535,08/01.0/2025,2000,g 13.5,4.0
# From MPEC 2023-J29
330P/Catalina,e,15.7410,293.0844,188.8402,6.614839,0.0579329,0.55064016,188.6654,08/01.0/2025,2000,g 12.0,4.0
# From MPEC 2024-Q20
331P/Gibbs,e,9.7408,216.7421,185.6448,3.002903,0.1894053,0.04143938,332.3815,08/01.0/2025,2000,g 12.0,4.0
# From MPEC 2016-K18
332P/Ikeya-Murakami,e,9.3860,3.7546,152.2982,3.086054,0.1818020,0.48988192,262.4282,08/01.0/2025,2000,g 18.0,4.0
# From MPEC 2016-K18
332P-A/Ikeya-Murakami,e,9.3858,152.3152,3.7386,3.086034,0.1818038,0.48988973,262.4270,08/01.0/2025,2000,g  9.0,4.0
# From MPEC 2016-EI8
332P-B/Ikeya-Murakami,e,9.3805,3.8028,152.3711,3.082329,0.1821317,0.48970701,359.9699,03/17.0/2016,2000,g 19.0,4.0
# From MPEC 2016-K18
332P-C/Ikeya-Murakami,e,9.3849,152.3065,3.7390,3.086000,0.1818068,0.48989526,262.4454,08/01.0/2025,2000,g 16.5,4.0
# From MPEC 2016-ED0
332P-D/Ikeya-Murakami,e,9.3761,3.7923,152.4393,3.081138,0.1822373,0.48977814,359.9486,03/17.0/2016,2000,g 19.0,4.0
# From MPEC 2016-ED0
332P-E/Ikeya-Murakami,e,9.3774,3.8228,152.2825,3.079877,0.1823493,0.48922008,359.9889,03/17.0/2016,2000,g 21.0,4.0
# From MPEC 2016-ED0
332P-F/Ikeya-Murakami,e,9.5293,3.4757,152.8203,3.163214,0.1751908,0.49918860,359.8501,03/17.0/2016,2000,g 21.0,4.0
# From MPEC 2016-ED0
332P-G/Ikeya-Murakami,e,9.2523,3.6955,154.4000,3.050519,0.1849880,0.49200362,359.9006,03/19.0/2016,2000,g 19.0,4.0
# From MPC100285
332P-H/Ikeya-Murakami,e,9.3854,152.3072,3.7387,3.086181,0.1817909,0.48993125,262.3570,08/01.0/2025,2000,g 19.0,4.0
# From MPEC 2016-ED0
332P-I/Ikeya-Murakami,e,9.3791,3.8048,152.3297,3.081767,0.1821815,0.48955490,359.9360,03/17.0/2016,2000,g 20.5,2.0
# From MPEC 2016-EI8
332P-J/Ikeya-Murakami,e,9.4296,3.6729,152.7712,3.115165,0.1792596,0.49429435,359.8613,03/17.0/2016,2000,g 20.5,2.0
# From MPEC 2025-OF9
333P/LINEAR,e,132.0229,115.7062,26.0238,4.220669,0.1136664,0.73628382,27.8143,08/01.0/2025,2000,g 15.0,4.0
# From MPEC 2023-J29
334P/NEAT,e,20.3637,90.3449,90.0797,6.823934,0.0552907,0.35206548,164.7330,08/01.0/2025,2000,g 10.5,4.0
# From MPEC 2023-M14
335P/Gibbs,e,7.2983,330.7895,162.3246,3.577161,0.1456788,0.54691094,157.9747,08/01.0/2025,2000,g 16.8,4.0
# From MPC105244
336P/McNaught,e,17.8867,298.1647,308.7452,5.033380,0.0872800,0.44682653,271.2562,08/01.0/2025,2000,g 13.5,4.0
# From MPEC 2024-A43
337P/WISE,e,17.1146,102.0015,166.3708,3.356061,0.1603095,0.47682783,182.3854,08/01.0/2025,2000,g 17.0,4.0
# From MPC182891
338P/McNaught,e,25.3766,9.7255,4.6379,3.895478,0.1281926,0.41282835,46.4953,08/01.0/2025,2000,g 12.0,4.0
# From MPC101101
339P/Gibbs,e,5.7350,27.4554,172.6733,3.698379,0.1385757,0.63583872,97.1414,08/01.0/2025,2000,g 17.0,4.0
# From MPC133426
340P/Boattini,e,2.0790,291.6599,36.0642,4.246684,0.1126236,0.27992052,356.8174,08/01.0/2025,2000,g 14.3,4.0
# From MPEC 2023-J29
341P/Gibbs,e,3.7965,29.9523,312.3649,4.284644,0.1111302,0.41501758,11.1446,08/01.0/2025,2000,g 12.5,4.0
# From MPC101101
342P/SOHO,e,11.6888,73.3048,27.6558,3.040715,0.1858834,0.98298548,0.0000,02/07.7087/2027,2000,g  9.0,4.0
# From MPEC 2024-PC5
343P/NEAT-LONEOS,e,5.5976,257.0543,137.6092,5.458025,0.0772949,0.58476785,239.6702,08/01.0/2025,2000,g 14.0,4.0
# From MPEC 2023-J29
344P/Read,e,3.4997,273.1017,140.6323,4.854635,0.0921444,0.42372534,293.3909,08/01.0/2025,2000,g 13.0,4.0
# From MPEC 2024-TP3
345P/LINEAR,e,2.7279,154.5018,196.8075,4.033078,0.1216884,0.22141848,40.7383,08/01.0/2025,2000,g 12.0,4.0
# From MPEC 2025-OF9
346P/Catalina,e,22.2193,102.4579,336.0836,4.467516,0.1043770,0.50390597,321.8746,08/01.0/2025,2000,g 14.0,4.0
# From MPEC 2024-RQ6
347P/PANSTARRS,e,11.7657,260.9891,98.0740,3.599503,0.1443246,0.38701105,107.3471,08/01.0/2025,2000,g 15.0,4.0
# From MPEC 2022-ED3
348P/PANSTARRS,e,17.7434,312.9118,135.7835,3.151521,0.1761667,0.30751433,222.7377,08/01.0/2025,2000,g 14.0,4.0
# From MPEC 2024-LE0
349P/Lemmon,e,5.4894,331.7384,255.7404,3.577842,0.1456372,0.29859792,62.7809,08/01.0/2025,2000,g 14.0,4.0
# From MPC184420
350P/McNaught,e,7.3655,65.2952,140.0671,4.080925,0.1195546,0.09474059,332.6844,08/01.0/2025,2000,g 14.0,4.0
# From MPEC 2025-OF9
351P/Wiegert-PANSTARRS,e,12.7786,283.3842,352.5526,4.440435,0.1053333,0.29468958,13.4715,08/01.0/2025,2000,g 12.5,4.0
# From MPEC 2023-J29
352P/Skiff,e,21.0023,28.0558,309.3639,6.655938,0.0573971,0.61587242,170.2308,08/01.0/2025,2000,g 13.2,4.0
# From MPEC 2020-AA5
353P/McNaught,e,28.4197,121.5085,230.4851,4.170815,0.1157105,0.46968676,321.2978,08/01.0/2025,2000,g 14.5,4.0
# From MPEC 2024-EF7
354P/LINEAR,e,5.2508,320.0572,132.9461,2.290339,0.2843508,0.12445797,186.7339,08/01.0/2025,2000,g 15.5,4.0
# From MPEC 2023-CD7
355P/LINEAR-NEAT,e,11.0460,51.4227,336.2551,3.466902,0.1526834,0.50794465,74.3222,08/01.0/2025,2000,g 15.5,2.0
# From MPEC 2025-OF9
356P/WISE,e,9.6391,160.7457,226.2734,4.152002,0.1164978,0.35584171,323.2613,08/01.0/2025,2000,g 14.0,4.0
# From MPC114609
357P/Hill,e,6.3123,44.5656,1.5129,4.454814,0.1048237,0.43599176,274.0773,08/01.0/2025,2000,g 15.5,4.0
# From MPEC 2024-EF7
358P/PANSTARRS,e,11.0668,85.6666,299.3191,3.145532,0.1766701,0.23947618,111.3973,08/01.0/2025,2000,g 18.0,4.0
# From MPC110086
359P/LONEOS,e,10.2618,149.7426,200.2790,4.642633,0.0985275,0.32307522,285.7652,08/01.0/2025,2000,g 13.5,4.0
# From MPEC 2025-A40
360P/WISE,e,24.1052,2.1384,354.3481,3.699620,0.1385059,0.49947959,41.7101,08/01.0/2025,2000,g 19.5,6.0
# From MPEC 2023-CD7
361P/Spacewatch,e,13.8971,203.2250,219.1419,4.932871,0.0899610,0.43951342,232.1907,08/01.0/2025,2000,g 12.0,4.0
# From MPC184420
363P/Lemmon,e,5.3938,146.7572,340.7678,3.574877,0.1458185,0.51857724,38.0250,08/01.0/2025,2000,g 17.5,4.0
# From MPEC 2024-M41
364P/PANSTARRS,e,11.8672,45.7791,212.8751,2.901963,0.1993730,0.71698354,161.8229,08/01.0/2025,2000,g 17.0,2.0
# From MPC111775
365P/PANSTARRS,e,9.8498,86.6553,67.4144,3.156225,0.1757730,0.58169329,116.2666,08/01.0/2025,2000,g 17.0,4.0
# From MPC114610
366P/Spacewatch,e,8.8566,70.7228,152.9906,3.500376,0.1504984,0.34865834,27.4089,08/01.0/2025,2000,g 15.0,4.0
# From MPC112395
